BEIDOU-3 M15 (C34)      
1 43648U 18078B   26094.05022924 -.00000062  00000+0  00000+0 0  9991
2 43648  54.1526 302.5850 0005403  45.0328 315.0307  1.86232221 50794
BEIDOU-3 G1 (C59)       
1 43683U 18085A   26091.86294493 -.00000284  00000+0  00000+0 0  9992
2 43683   2.8820  99.4564 0002058  12.9832 168.3736  1.00268589 27296
COSMOS 2529 (757)       
1 43687U 18086A   26092.16118493  .00000002  00000+0  00000+0 0  9993
2 43687  64.2936 195.1591 0009054 253.7554 106.1568  2.13101947 57669
BEIDOU-3 M17 (C36)      
1 43706U 18093A   26093.17930544  .00000013  00000+0  00000+0 0  9996
2 43706  54.1686 184.8411 0008074 293.4644  95.1929  1.86228537 50147
BEIDOU-3 M18 (C37)      
1 43707U 18093B   26091.38824043 -.00000003  00000+0  00000+0 0  9994
2 43707  54.1693 184.8940 0006484 331.1835  28.8049  1.86226571 50106
GPS BIII-1  (PRN 04)    
1 43873U 18109A   26095.46045906  .00000008  00000+0  00000+0 0  9996
2 43873  55.6371  95.0540 0038010 198.8972 333.4266  2.00558463 53618
BEIDOU-3 IGSO-1 (C38)   
1 44204U 19023A   26090.65189120 -.00000226  00000+0  00000+0 0  9997
2 44204  58.5926  38.4466 0025189 236.5952 266.8923  1.00262964  6438
BEIDOU-2 G8 (C01)       
1 44231U 19027A   26095.55970508 -.00000244  00000+0  00000+0 0  9993
2 44231   1.4745  74.3181 0011526 276.8344 188.7018  1.00275482 25357
COSMOS 2534 (758)       
1 44299U 19030A   26092.46822809  .00000005  00000+0  00000+0 0  9992
2 44299  64.3670 195.1642 0010843 278.2113  91.7529  2.13102468 53316
BEIDOU-3 IGSO-2 (C39)   
1 44337U 19035A   26086.82285878 -.00000161  00000+0  00000+0 0  9996
2 44337  55.2326 159.5780 0039045 213.6954 226.2541  1.00291912 24858
GPS BIII-2  (PRN 18)    
1 44506U 19056A   26095.09796293 -.00000090  00000+0  00000+0 0  9995
2 44506  55.6701 334.0490 0058764 197.6004 334.4346  2.00569081 48601
BEIDOU-3 M24 (C46)      
1 44542U 19061A   26094.67962578  .00000015  00000+0  00000+0 0  9991
2 44542  54.3962 185.2068 0008113  12.5163 347.5468  1.86229007 44427
BEIDOU-3 M23 (C45)      
1 44543U 19061B   26092.15889837  .00000005  00000+0  00000+0 0  9998
2 44543  54.3946 185.2604 0004867 359.4431  22.6796  1.86227494 44387
EUTELSAT 5 WEST B (EGN*)
1 44624U 19067A   26095.24482322 -.00000041  00000+0  00000+0 0  9996
2 44624   0.0660  12.3503 0003462  12.4462 251.8810  1.00272865 23700
BEIDOU-3 IGSO-3 (C40)   
1 44709U 19073A   26094.91715300 -.00000178  00000+0  00000+0 0  9996
2 44709  54.9277 281.6865 0041418 188.5176 171.3520  1.00259378 23728
BEIDOU-3 M22 (C44)      
1 44793U 19078A   26094.51853862 -.00000061  00000+0  00000+0 0  9997
2 44793  54.0029 302.4189 0007558  42.6264 317.4505  1.86227241 43279
BEIDOU-3 M21 (C43)      
1 44794U 19078B   26093.58474245 -.00000063  00000+0  00000+0 0  9990
2 44794  53.9768 302.4147 0005354  38.8071 321.2518  1.86227660 43268
